start=new Date('2022-08-03T00:00:00.000Z').valueOf();
sats=[{"INCLINATION":"53.2181","ECCENTRICITY":"0.00026400","TLE_LINE2":"2 52998  53.2181 250.7417 0002640  23.1539 103.7800 15.73165443  4592","MEAN_MOTION_DOT":"0.00042461","ARG_OF_PERICENTER":"23.1539","RCS_SIZE":"LARGE","NORAD_CAT_ID":"52998","REV_AT_EPOCH":"459","ELEMENT_SET_NO":"999","RA_OF_ASC_NODE":"250.7417","PERIOD":"91.535","MEAN_MOTION_DDOT":"0.0000000000000","FILE":"3527787","CLASSIFICATION_TYPE":"U","EPHEMERIS_TYPE":"0","TLE_LINE1":"1 52998U 22076N   22214.58334491  .00042461  00000-0  30585-3 0  9999","MEAN_MOTION":"15.73165443","OBJECT_TYPE":"PAYLOAD","PERIAPSIS":"348.083","TIME_SYSTEM":"UTC","REF_FRAME":"TEME","APOAPSIS":"351.635","CENTER_NAME":"EARTH","OBJECT_ID":"2022-076N","COUNTRY_CODE":"US","SITE":"AFETR","SEMIMAJOR_AXIS":"6727.994","EPOCH":"2022-08-02T14:00:01.000224","LAUNCH_DATE":"2022-07-07","MEAN_ELEMENT_THEORY":"SGP4","OBJECT_NAME":"STARLINK-4254","BSTAR":"0.00030585000000","MEAN_ANOMALY":"103.7800","DECAY_DATE":null,"GP_ID":"209433375"},{"ECCENTRICITY":"0.00027470","INCLINATION":"53.2184","TLE_LINE2":"2 52999  53.2184 250.7384 0002747  13.9750 115.9247 15.73189432  4593","MEAN_MOTION_DOT":"-0.00017244","ARG_OF_PERICENTER":"13.9750","RCS_SIZE":"LARGE","NORAD_CAT_ID":"52999","REV_AT_EPOCH":"459","PERIOD":"91.534","ELEMENT_SET_NO":"999","RA_OF_ASC_NODE":"250.7384","FILE":"3527787","MEAN_MOTION_DDOT":"0.0000000000000","EPHEMERIS_TYPE":"0","CLASSIFICATION_TYPE":"U","MEAN_MOTION":"15.73189432","TLE_LINE1":"1 52999U 22076P   22214.58334491 -.00017244  00000-0 -11871-3 0  9990","OBJECT_TYPE":"PAYLOAD","TIME_SYSTEM":"UTC","PERIAPSIS":"347.942","APOAPSIS":"351.638","REF_FRAME":"TEME","COUNTRY_CODE":"US","CENTER_NAME":"EARTH","OBJECT_ID":"2022-076P","SITE":"AFETR","SEMIMAJOR_AXIS":"6727.925","LAUNCH_DATE":"2022-07-07","MEAN_ELEMENT_THEORY":"SGP4","EPOCH":"2022-08-02T14:00:01.000224","OBJECT_NAME":"STARLINK-4217","BSTAR":"-0.00011871000000","MEAN_ANOMALY":"115.9247","GP_ID":"209433471","DECAY_DATE":null},{"EPOCH":"2022-08-02T14:00:01.000224","LAUNCH_DATE":"2022-07-07","MEAN_ELEMENT_THEORY":"SGP4","OBJECT_NAME":"STARLINK-4194","BSTAR":"0.00015108000000","MEAN_ANOMALY":"108.5651","GP_ID":"209433374","DECAY_DATE":null,"OBJECT_TYPE":"PAYLOAD","TIME_SYSTEM":"UTC","PERIAPSIS":"348.060","APOAPSIS":"351.578","REF_FRAME":"TEME","COUNTRY_CODE":"US","CENTER_NAME":"EARTH","OBJECT_ID":"2022-076Q","SITE":"AFETR","SEMIMAJOR_AXIS":"6727.954","REV_AT_EPOCH":"459","PERIOD":"91.534","RA_OF_ASC_NODE":"250.7402","ELEMENT_SET_NO":"999","FILE":"3527787","MEAN_MOTION_DDOT":"0.0000000000000","EPHEMERIS_TYPE":"0","CLASSIFICATION_TYPE":"U","MEAN_MOTION":"15.73179427","TLE_LINE1":"1 53000U 22076Q   22214.58334491  .00020617  00000-0  15108-3 0  9997","ECCENTRICITY":"0.00026140","INCLINATION":"53.2181","TLE_LINE2":"2 53000  53.2181 250.7402 0002614  18.9940 108.5651 15.73179427  4594","MEAN_MOTION_DOT":"0.00020617","ARG_OF_PERICENTER":"18.9940","RCS_SIZE":"LARGE","NORAD_CAT_ID":"53000"},{"REF_FRAME":"TEME","APOAPSIS":"351.679","OBJECT_TYPE":"PAYLOAD","PERIAPSIS":"347.907","TIME_SYSTEM":"UTC","SITE":"AFETR","SEMIMAJOR_AXIS":"6727.928","CENTER_NAME":"EARTH","OBJECT_ID":"2022-076R","COUNTRY_CODE":"US","BSTAR":"-0.00010365000000","MEAN_ANOMALY":"112.5211","LAUNCH_DATE":"2022-07-07","EPOCH":"2022-08-02T14:00:01.000224","MEAN_ELEMENT_THEORY":"SGP4","OBJECT_NAME":"STARLINK-4190","DECAY_DATE":null,"GP_ID":"209433470","TLE_LINE2":"2 53001  53.2183 250.7365 0002803  17.9733 112.5211 15.73188584  4595","MEAN_MOTION_DOT":"-0.00015139","INCLINATION":"53.2183","ECCENTRICITY":"0.00028030","NORAD_CAT_ID":"53001","ARG_OF_PERICENTER":"17.9733","RCS_SIZE":"LARGE","RA_OF_ASC_NODE":"250.7365","ELEMENT_SET_NO":"999","PERIOD":"91.534","REV_AT_EPOCH":"459","TLE_LINE1":"1 53001U 22076R   22214.58334491 -.00015139  00000-0 -10365-3 0  9993","MEAN_MOTION":"15.73188584","MEAN_MOTION_DDOT":"0.0000000000000","FILE":"3527787","CLASSIFICATION_TYPE":"U","EPHEMERIS_TYPE":"0"},{"REF_FRAME":"TEME","APOAPSIS":"351.466","OBJECT_TYPE":"PAYLOAD","PERIAPSIS":"348.103","TIME_SYSTEM":"UTC","SITE":"AFETR","SEMIMAJOR_AXIS":"6727.919","CENTER_NAME":"EARTH","OBJECT_ID":"2022-076S","COUNTRY_CODE":"US","BSTAR":"0.00033287000000","MEAN_ANOMALY":"104.4126","MEAN_ELEMENT_THEORY":"SGP4","LAUNCH_DATE":"2022-07-07","EPOCH":"2022-08-02T14:00:01.000224","OBJECT_NAME":"STARLINK-4121","DECAY_DATE":null,"GP_ID":"209431004","TLE_LINE2":"2 53002  53.2185 250.7411 0002499  23.6981 104.4126 15.73191511  1305","MEAN_MOTION_DOT":"0.00046341","INCLINATION":"53.2185","ECCENTRICITY":"0.00024990","NORAD_CAT_ID":"53002","ARG_OF_PERICENTER":"23.6981","RCS_SIZE":"LARGE","RA_OF_ASC_NODE":"250.7411","ELEMENT_SET_NO":"999","PERIOD":"91.534","REV_AT_EPOCH":"130","TLE_LINE1":"1 53002U 22076S   22214.58334491  .00046341  00000-0  33287-3 0  9999","MEAN_MOTION":"15.73191511","MEAN_MOTION_DDOT":"0.0000000000000","FILE":"3527697","CLASSIFICATION_TYPE":"U","EPHEMERIS_TYPE":"0"},{"APOAPSIS":"351.705","REF_FRAME":"TEME","TIME_SYSTEM":"UTC","PERIAPSIS":"347.805","OBJECT_TYPE":"PAYLOAD","SEMIMAJOR_AXIS":"6727.890","SITE":"AFETR","COUNTRY_CODE":"US","OBJECT_ID":"2022-076T","CENTER_NAME":"EARTH","MEAN_ANOMALY":"116.1886","BSTAR":"-0.00025341000000","OBJECT_NAME":"STARLINK-4255","LAUNCH_DATE":"2022-07-07","MEAN_ELEMENT_THEORY":"SGP4","EPOCH":"2022-08-02T14:00:01.000224","GP_ID":"209430749","DECAY_DATE":null,"MEAN_MOTION_DOT":"-0.00036046","TLE_LINE2":"2 53003  53.2182 250.7340 0002898  15.4887 116.1886 15.73201820  1309","ECCENTRICITY":"0.00028980","INCLINATION":"53.2182","NORAD_CAT_ID":"53003","RCS_SIZE":"LARGE","ARG_OF_PERICENTER":"15.4887","PERIOD":"91.533","ELEMENT_SET_NO":"999","RA_OF_ASC_NODE":"250.7340","REV_AT_EPOCH":"130","MEAN_MOTION":"15.73201820","TLE_LINE1":"1 53003U 22076T   22214.58334491 -.00036046  00000-0 -25341-3 0  9995","EPHEMERIS_TYPE":"0","CLASSIFICATION_TYPE":"U","FILE":"3527697","MEAN_MOTION_DDOT":"0.0000000000000"},{"APOAPSIS":"351.581","REF_FRAME":"TEME","TIME_SYSTEM":"UTC","PERIAPSIS":"348.035","OBJECT_TYPE":"PAYLOAD","SEMIMAJOR_AXIS":"6727.943","SITE":"AFETR","COUNTRY_CODE":"US","CENTER_NAME":"EARTH","OBJECT_ID":"2022-076U","MEAN_ANOMALY":"110.0683","BSTAR":"-0.00010141000000","OBJECT_NAME":"STARLINK-4253","MEAN_ELEMENT_THEORY":"SGP4","LAUNCH_DATE":"2022-07-07","EPOCH":"2022-08-02T14:00:01.000224","GP_ID":"209433475","DECAY_DATE":null,"MEAN_MOTION_DOT":"-0.00014821","TLE_LINE2":"2 53004  53.2182 250.7379 0002635  19.2389 110.0683 15.73183254  4592","ECCENTRICITY":"0.00026350","INCLINATION":"53.2182","NORAD_CAT_ID":"53004","RCS_SIZE":"LARGE","ARG_OF_PERICENTER":"19.2389","PERIOD":"91.534","ELEMENT_SET_NO":"999","RA_OF_ASC_NODE":"250.7379","REV_AT_EPOCH":"459","MEAN_MOTION":"15.73183254","TLE_LINE1":"1 53004U 22076U   22214.58334491 -.00014821  00000-0 -10141-3 0  9995","EPHEMERIS_TYPE":"0","CLASSIFICATION_TYPE":"U","FILE":"3527787","MEAN_MOTION_DDOT":"0.0000000000000"},{"NORAD_CAT_ID":"53005","ARG_OF_PERICENTER":"17.5676","RCS_SIZE":"LARGE","TLE_LINE2":"2 53005  53.2182 250.7331 0002794  17.5676 114.7086 15.73186386  4594","MEAN_MOTION_DOT":"-0.00013384","ECCENTRICITY":"0.00027940","INCLINATION":"53.2182","MEAN_MOTION":"15.73186386","TLE_LINE1":"1 53005U 22076V   22214.58334491 -.00013384  00000-0 -91114-4 0  9999","FILE":"3527787","MEAN_MOTION_DDOT":"0.0000000000000","EPHEMERIS_TYPE":"0","CLASSIFICATION_TYPE":"U","PERIOD":"91.534","ELEMENT_SET_NO":"999","RA_OF_ASC_NODE":"250.7331","REV_AT_EPOCH":"459","SITE":"AFETR","SEMIMAJOR_AXIS":"6727.934","COUNTRY_CODE":"US","OBJECT_ID":"2022-076V","CENTER_NAME":"EARTH","APOAPSIS":"351.679","REF_FRAME":"TEME","OBJECT_TYPE":"PAYLOAD","TIME_SYSTEM":"UTC","PERIAPSIS":"347.919","DECAY_DATE":null,"GP_ID":"209433378","BSTAR":"-0.00009111400000","MEAN_ANOMALY":"114.7086","EPOCH":"2022-08-02T14:00:01.000224","LAUNCH_DATE":"2022-07-07","MEAN_ELEMENT_THEORY":"SGP4","OBJECT_NAME":"STARLINK-4288"},{"OBJECT_NAME":"STARLINK-4290","EPOCH":"2022-08-02T14:00:01.000224","LAUNCH_DATE":"2022-07-07","MEAN_ELEMENT_THEORY":"SGP4","MEAN_ANOMALY":"120.4033","BSTAR":"0.00013817000000","DECAY_DATE":null,"GP_ID":"209430621","TIME_SYSTEM":"UTC","PERIAPSIS":"347.793","OBJECT_TYPE":"PAYLOAD","APOAPSIS":"351.823","REF_FRAME":"TEME","COUNTRY_CODE":"US","CENTER_NAME":"EARTH","OBJECT_ID":"2022-076W","SEMIMAJOR_AXIS":"6727.943","SITE":"AFETR","REV_AT_EPOCH":"130","PERIOD":"91.534","ELEMENT_SET_NO":"999","RA_OF_ASC_NODE":"250.7361","EPHEMERIS_TYPE":"0","CLASSIFICATION_TYPE":"U","FILE":"3527697","MEAN_MOTION_DDOT":"0.0000000000000","MEAN_MOTION":"15.73183126","TLE_LINE1":"1 53006U 22076W   22214.58334491  .00018802  00000-0  13817-3 0  9991","ECCENTRICITY":"0.00029950","INCLINATION":"53.2185","MEAN_MOTION_DOT":"0.00018802","TLE_LINE2":"2 53006  53.2185 250.7361 0002995  10.7284 120.4033 15.73183126  1305","RCS_SIZE":"LARGE","ARG_OF_PERICENTER":"10.7284","NORAD_CAT_ID":"53006"},{"APOAPSIS":"351.504","REF_FRAME":"TEME","OBJECT_TYPE":"PAYLOAD","TIME_SYSTEM":"UTC","PERIAPSIS":"348.066","SITE":"AFETR","SEMIMAJOR_AXIS":"6727.920","COUNTRY_CODE":"US","CENTER_NAME":"EARTH","OBJECT_ID":"2022-076X","BSTAR":"-0.00025041000000","MEAN_ANOMALY":"116.9771","MEAN_ELEMENT_THEORY":"SGP4","LAUNCH_DATE":"2022-07-07","EPOCH":"2022-08-02T14:00:01.000224","OBJECT_NAME":"STARLINK-4215","DECAY_DATE":null,"GP_ID":"209433469","TLE_LINE2":"2 53007  53.2185 250.7308 0002555  17.1195 116.9771 15.73191408  4596","MEAN_MOTION_DOT":"-0.00035610","ECCENTRICITY":"0.00025550","INCLINATION":"53.2185","NORAD_CAT_ID":"53007","ARG_OF_PERICENTER":"17.1195","RCS_SIZE":"LARGE","PERIOD":"91.534","RA_OF_ASC_NODE":"250.7308","ELEMENT_SET_NO":"999","REV_AT_EPOCH":"459","MEAN_MOTION":"15.73191408","TLE_LINE1":"1 53007U 22076X   22214.58334491 -.00035610  00000-0 -25041-3 0  9992","FILE":"3527787","MEAN_MOTION_DDOT":"0.0000000000000","EPHEMERIS_TYPE":"0","CLASSIFICATION_TYPE":"U"}];
